OBJECT_NAME,OBJECT_ID,EPOCH,MEAN_MOTION,ECCENTRICITY,INCLINATION,RA_OF_ASC_NODE,ARG_OF_PERICENTER,MEAN_ANOMALY,EPHEMERIS_TYPE,CLASSIFICATION_TYPE,NORAD_CAT_ID,ELEMENT_SET_NO,REV_AT_EPOCH,BSTAR,MEAN_MOTION_DOT,MEAN_MOTION_DDOT
ONEWEB-0130,2020-100U,2026-07-08T09:12:40.437504,13.12442494,.00018956,87.8959,346.4382,96.7120,263.4225,0,U,47276,999,26742,-.10207559E-2,-.354E-5,0
ONEWEB-0131,2020-100V,2026-07-08T09:07:47.777376,13.12441703,.00017719,87.8953,346.4542,99.9967,260.1361,0,U,47277,999,26746,-.90155761E-3,-.312E-5,0
ONEWEB-0132,2020-100W,2026-07-08T09:49:16.090464,13.12443419,.00018138,87.8956,346.4508,96.4234,263.7101,0,U,47278,999,26736,.27263063E-3,.111E-5,0
ONEWEB-0133,2020-100X,2026-07-08T04:44:07.505376,13.12442962,.00017592,87.8968,346.4712,100.2578,259.8749,0,U,47279,999,26749,.11690421E-2,.433E-5,0
ONEWEB-0134,2020-100Y,2026-07-08T09:29:44.669760,13.12442873,.00019619,87.8966,346.4293,102.2770,257.8578,0,U,47280,999,26749,-.81248754E-3,-.28E-5,0
ONEWEB-0135,2020-100Z,2026-07-08T10:38:03.625728,13.12441818,.00019145,87.8953,346.4398,106.4072,253.7267,0,U,47281,999,26752,.46794961E-3,.181E-5,0
ONEWEB-0136,2020-100AA,2026-07-08T09:15:06.424992,13.12442209,.00019919,87.8963,346.4342,103.6392,256.4958,0,U,47282,999,26744,-.10512982E-2,-.365E-5,0
ONEWEB-0137,2020-100AB,2026-07-08T10:03:54.768960,13.12443700,.00018555,87.8968,346.4388,90.7972,269.3370,0,U,47283,999,26735,.10140457E-2,.378E-5,0
ONEWEB-0138,2020-100AC,2026-07-08T09:32:11.392512,13.12443342,.00020035,87.8964,346.4477,99.7596,260.3759,0,U,47284,999,26743,-.75365194E-3,-.258E-5,0
ONEWEB-0139,2020-100AD,2026-07-08T10:30:57.273696,13.12442185,.00019121,87.8961,346.4253,95.4764,264.6582,0,U,47285,999,26751,.88953473E-3,.333E-5,0
ONEWEB-0140,2020-100AE,2026-07-08T09:24:52.011360,13.12443229,.00017255,87.8965,346.4261,97.9026,262.2299,0,U,47286,999,26747,-.97082322E-3,-.337E-5,0
ONEWEB-0141,2020-100AF,2026-07-08T10:30:32.755104,13.12442247,.00019595,87.8963,346.4216,85.6756,274.4596,0,U,47287,999,26746,.80691575E-3,.303E-5,0
ONEWEB-0142,2020-100AG,2026-07-08T10:13:52.812480,13.12444246,.00022436,87.8959,346.4443,91.8822,268.2564,0,U,47288,999,26745,.13393903E-2,.495E-5,0
ONEWEB-0143,2020-100AH,2026-07-07T21:39:50.228352,13.12441802,.00018526,87.8960,346.5479,93.3519,266.7821,0,U,47289,999,26736,.51869705E-3,.199E-5,0
ONEWEB-0144,2020-100AJ,2026-07-08T09:46:49.970784,13.12443384,.00021977,87.8967,346.4230,99.2688,260.8689,0,U,47290,999,26735,.1559581E-3,.69E-6,0
ONEWEB-0145,2020-100AK,2026-07-08T09:05:21.147072,13.12442008,.00019465,87.8955,346.4540,96.0193,264.1157,0,U,47291,999,26754,-.71036334E-3,-.243E-5,0
ONEWEB-0146,2020-100AL,2026-07-08T09:00:28.637280,13.12441490,.00014719,87.8965,346.4479,93.9224,266.2073,0,U,47292,999,26745,-.71703583E-3,-.245E-5,0
ONEWEB-0147,2020-100AM,2026-07-08T10:01:28.555968,13.12443853,.00018274,87.8966,346.4218,99.8650,260.2685,0,U,47293,999,26735,.10074183E-2,.375E-5,0
ONEWEB-0115,2021-025A,2026-07-08T08:28:25.707648,13.13472785,.00020003,87.8976,316.0110,100.5050,259.6305,0,U,48042,999,25637,-.38001658E-4,-.1E-7,0
ONEWEB-0152,2021-025B,2026-07-08T08:47:56.725728,13.13467789,.00017818,87.8986,316.0050,102.8716,257.2612,0,U,48043,999,25633,-.53718386E-3,-.183E-5,0
ONEWEB-0153,2021-025C,2026-07-08T08:16:15.141216,13.13469398,.00019934,87.8975,316.0115,97.0589,263.0767,0,U,48044,999,25632,.99896055E-3,.378E-5,0
ONEWEB-0154,2021-025D,2026-07-07T21:13:12.499680,13.13469680,.00018709,87.8982,316.1017,104.6581,255.4755,0,U,48045,999,25622,.78540723E-3,.3E-5,0
ONEWEB-0116,2021-025E,2026-07-08T07:17:44.649600,13.13469860,.00017819,87.8983,316.0158,100.6911,259.4419,0,U,48046,999,25642,-.81196419E-3,-.284E-5,0
ONEWEB-0150,2021-025F,2026-07-08T08:33:19.427040,13.13468983,.00019184,87.8982,316.0026,91.8765,268.2584,0,U,48047,999,25632,.4415228E-3,.174E-5,0
ONEWEB-0107,2021-025G,2026-07-08T08:35:46.708800,13.13471367,.00021046,87.8982,315.9985,99.9568,260.1799,0,U,48048,999,25630,.39857793E-3,.158E-5,0
ONEWEB-0101,2021-025H,2026-07-08T07:42:08.008992,13.13471433,.00020472,87.8971,316.0190,102.0007,258.1352,0,U,48049,999,25627,-.10546175E-3,-.26E-6,0
ONEWEB-0113,2021-025J,2026-07-08T08:07:24.917376,13.13891962,.00018627,87.8976,315.9236,95.1572,264.9770,0,U,48050,999,25638,.80932941E-3,.31E-5,0
ONEWEB-0112,2021-025K,2026-07-08T06:53:22.289856,13.13469003,.00020976,87.8986,316.0105,103.7035,256.4328,0,U,48051,999,25636,-.12202741E-3,-.32E-6,0
ONEWEB-0156,2021-025L,2026-07-08T07:05:33.788544,13.13471452,.00020005,87.8985,316.0185,97.9922,262.1434,0,U,48052,999,25634,-.53146556E-3,-.181E-5,0
ONEWEB-0161,2021-025M,2026-07-08T08:18:41.293728,13.13469062,.00020716,87.8983,316.0094,95.2125,264.9241,0,U,48053,999,25628,.89263836E-3,.339E-5,0
