ONEWEB-0130             
1 47276U 20100U   26189.38380136 -.00000354  00000+0 -10208-2 0  9993
2 47276  87.8959 346.4382 0001895  96.7120 263.4225 13.12442494267421
ONEWEB-0131             
1 47277U 20100V   26189.38041409 -.00000312  00000+0 -90156-3 0  9996
2 47277  87.8953 346.4542 0001771  99.9967 260.1361 13.12441703267462
ONEWEB-0132             
1 47278U 20100W   26189.40921401  .00000111  00000+0  27263-3 0  9993
2 47278  87.8956 346.4508 0001813  96.4234 263.7101 13.12443419267360
ONEWEB-0133             
1 47279U 20100X   26189.19730909  .00000433  00000+0  11690-2 0  9994
2 47279  87.8968 346.4712 0001759 100.2578 259.8749 13.12442962267495
ONEWEB-0134             
1 47280U 20100Y   26189.39565590 -.00000280  00000+0 -81249-3 0  9990
2 47280  87.8966 346.4293 0001961 102.2770 257.8578 13.12442873267499
ONEWEB-0135             
1 47281U 20100Z   26189.44309752  .00000181  00000+0  46795-3 0  9998
2 47281  87.8953 346.4398 0001914 106.4072 253.7267 13.12441818267523
ONEWEB-0136             
1 47282U 20100AA  26189.38549103 -.00000365  00000+0 -10513-2 0  9992
2 47282  87.8963 346.4342 0001991 103.6392 256.4958 13.12442209267446
ONEWEB-0137             
1 47283U 20100AB  26189.41938390  .00000378  00000+0  10140-2 0  9995
2 47283  87.8968 346.4388 0001855  90.7972 269.3370 13.12443700267359
ONEWEB-0138             
1 47284U 20100AC  26189.39735408 -.00000258  00000+0 -75365-3 0  9998
2 47284  87.8964 346.4477 0002003  99.7596 260.3759 13.12443342267435
ONEWEB-0139             
1 47285U 20100AD  26189.43816289  .00000333  00000+0  88953-3 0  9990
2 47285  87.8961 346.4253 0001912  95.4764 264.6582 13.12442185267517
ONEWEB-0140             
1 47286U 20100AE  26189.39226865 -.00000337  00000+0 -97082-3 0  9990
2 47286  87.8965 346.4261 0001725  97.9026 262.2299 13.12443229267475
ONEWEB-0141             
1 47287U 20100AF  26189.43787911  .00000303  00000+0  80692-3 0  9990
2 47287  87.8963 346.4216 0001959  85.6756 274.4596 13.12442247267460
ONEWEB-0142             
1 47288U 20100AG  26189.42630570  .00000495  00000+0  13394-2 0  9994
2 47288  87.8959 346.4443 0002243  91.8822 268.2564 13.12444246267454
ONEWEB-0143             
1 47289U 20100AH  26188.90266468  .00000199  00000+0  51870-3 0  9991
2 47289  87.8960 346.5479 0001852  93.3519 266.7821 13.12441802267366
ONEWEB-0144             
1 47290U 20100AJ  26189.40752281  .00000069  00000+0  15596-3 0  9993
2 47290  87.8967 346.4230 0002197  99.2688 260.8689 13.12443384267357
ONEWEB-0145             
1 47291U 20100AK  26189.37871698 -.00000243  00000+0 -71036-3 0  9991
2 47291  87.8955 346.4540 0001946  96.0193 264.1157 13.12442008267546
ONEWEB-0146             
1 47292U 20100AL  26189.37533145 -.00000245  00000+0 -71704-3 0  9998
2 47292  87.8965 346.4479 0001471  93.9224 266.2073 13.12441490267457
ONEWEB-0147             
1 47293U 20100AM  26189.41769162  .00000375  00000+0  10074-2 0  9998
2 47293  87.8966 346.4218 0001827  99.8650 260.2685 13.12443853267350
ONEWEB-0115             
1 48042U 21025A   26189.35307532 -.00000001  00000+0 -38002-4 0  9991
2 48042  87.8976 316.0110 0002000 100.5050 259.6305 13.13472785256374
ONEWEB-0152             
1 48043U 21025B   26189.36662877 -.00000183  00000+0 -53718-3 0  9990
2 48043  87.8986 316.0050 0001781 102.8716 257.2612 13.13467789256337
ONEWEB-0153             
1 48044U 21025C   26189.34461969  .00000378  00000+0  99896-3 0  9999
2 48044  87.8975 316.0115 0001993  97.0589 263.0767 13.13469398256329
ONEWEB-0154             
1 48045U 21025D   26188.88417245  .00000300  00000+0  78541-3 0  9995
2 48045  87.8982 316.1017 0001870 104.6581 255.4755 13.13469680256226
ONEWEB-0116             
1 48046U 21025E   26189.30398900 -.00000284  00000+0 -81196-3 0  9993
2 48046  87.8983 316.0158 0001781 100.6911 259.4419 13.13469860256420
ONEWEB-0150             
1 48047U 21025F   26189.35647485  .00000174  00000+0  44152-3 0  9991
2 48047  87.8982 316.0026 0001918  91.8765 268.2584 13.13468983256329
ONEWEB-0107             
1 48048U 21025G   26189.35817950  .00000158  00000+0  39858-3 0  9997
2 48048  87.8982 315.9985 0002104  99.9568 260.1799 13.13471367256307
ONEWEB-0101             
1 48049U 21025H   26189.32092603 -.00000026  00000+0 -10546-3 0  9994
2 48049  87.8971 316.0190 0002047 102.0007 258.1352 13.13471433256278
ONEWEB-0113             
1 48050U 21025J   26189.33848284  .00000310  00000+0  80933-3 0  9992
2 48050  87.8976 315.9236 0001862  95.1572 264.9770 13.13891962256381
ONEWEB-0112             
1 48051U 21025K   26189.28706354 -.00000032  00000+0 -12203-3 0  9996
2 48051  87.8986 316.0105 0002097 103.7035 256.4328 13.13469003256361
ONEWEB-0156             
1 48052U 21025L   26189.29552996 -.00000181  00000+0 -53147-3 0  9996
2 48052  87.8985 316.0185 0002000  97.9922 262.1434 13.13471452256343
ONEWEB-0161             
1 48053U 21025M   26189.34631127  .00000339  00000+0  89264-3 0  9999
2 48053  87.8983 316.0094 0002071  95.2125 264.9241 13.13469062256288
